[{"OBJECT_NAME":"ONEWEB-0168","OBJECT_ID":"2021-025AC","EPOCH":"2026-03-09T17:31:20.501760","MEAN_MOTION":13.1347044,"ECCENTRICITY":0.00018676,"INCLINATION":87.9047,"RA_OF_ASC_NODE":339.9984,"ARG_OF_PERICENTER":76.4601,"MEAN_ANOMALY":283.6736,"EPHEMERIS_TYPE":0,"CLASSIFICATION_TYPE":"U","NORAD_CAT_ID":48068,"ELEMENT_SET_NO":999,"REV_AT_EPOCH":24050,"BSTAR":0.00070648648,"MEAN_MOTION_DOT":2.71e-6,"MEAN_MOTION_DDOT":0},{"OBJECT_NAME":"DELTA 1 DEB","OBJECT_ID":"1975-052CQ","EPOCH":"2026-03-09T22:30:29.890080","MEAN_MOTION":13.28179028,"ECCENTRICITY":0.00803318,"INCLINATION":99.9046,"RA_OF_ASC_NODE":193.8236,"ARG_OF_PERICENTER":71.2084,"MEAN_ANOMALY":49.3629,"EPHEMERIS_TYPE":0,"CLASSIFICATION_TYPE":"U","NORAD_CAT_ID":21370,"ELEMENT_SET_NO":999,"REV_AT_EPOCH":68654,"BSTAR":0.00014678314,"MEAN_MOTION_DOT":2.6e-7,"MEAN_MOTION_DDOT":0}]
